GSAT0101 (GALILEO-PFM)  
1 37846U 11060A   26195.41786958 -.00000098  00000+0  00000+0 0  9993
2 37846  56.9846 341.0235 0002269  61.6458 298.3624  1.70475546 91581
GSAT0102 (GALILEO-FM2)  
1 37847U 11060B   26193.00368770 -.00000088  00000+0  00000+0 0  9994
2 37847  56.9863 341.0894 0002305  10.3981 353.6194  1.70475812 91555
GSAT0103 (GALILEO-FM3)  
1 38857U 12055A   26194.28553299 -.00000030  00000+0  00000+0 0  9991
2 38857  55.8215 100.8292 0003756 311.8113  48.1723  1.70473329 85453
GSAT0201 (GALILEO 5)    
1 40128U 14050A   26194.82721627 -.00000019  00000+0  00000+0 0  9991
2 40128  48.8455 272.3427 1678420 180.4632 179.4259  1.85519408 78812
GSAT0202 (GALILEO 6)    
1 40129U 14050B   26195.08266194 -.00000018  00000+0  00000+0 0  9993
2 40129  48.8629 271.4179 1679589 181.1559 178.4672  1.85520425 80983
GSAT0203 (GALILEO 7)    
1 40544U 15017A   26195.19559149 -.00000097  00000+0  00000+0 0  9992
2 40544  56.7773 340.8603 0002610 256.3881 103.5685  1.70476147 69662
GSAT0204 (GALILEO 8)    
1 40545U 15017B   26194.86487460 -.00000096  00000+0  00000+0 0  9991
2 40545  56.7839 340.8880 0002751 234.6933 125.2671  1.70475628 32700
GSAT0206 (GALILEO 10)   
1 40890U 15045B   26195.44010403  .00000065  00000+0  00000+0 0  9994
2 40890  54.9389 220.8513 0002159 328.3003  31.7529  1.70473502 67502
GSAT0209 (GALILEO 12)   
1 41174U 15079A   26195.02182816 -.00000029  00000+0  00000+0 0  9990
2 41174  55.8424 100.5256 0004793 355.0835   4.9328  1.70473559 65231
GSAT0208 (GALILEO 11)   
1 41175U 15079B   26194.06902902 -.00000030  00000+0  00000+0 0  9992
2 41175  55.8391 100.5488 0004537  14.0255 346.0022  1.70473434 65633
GSAT0211 (GALILEO 14)   
1 41549U 16030A   26194.19266486  .00000077  00000+0  00000+0 0  9999
2 41549  55.0900 220.9791 0003358 318.4199  41.6297  1.70473671 63114
GSAT0210 (GALILEO 13)   
1 41550U 16030B   26194.44991027  .00000075  00000+0  00000+0 0  9993
2 41550  55.0890 220.9702 0004705 245.6876 114.3369  1.70473836 63117
GSAT0207 (GALILEO 15)   
1 41859U 16069A   26192.96868882 -.00000030  00000+0  00000+0 0  9996
2 41859  55.5126 100.4004 0004522 339.9754  20.0172  1.70473524 59824
GSAT0212 (GALILEO 16)   
1 41860U 16069B   26193.99526782 -.00000031  00000+0  00000+0 0  9993
2 41860  55.5113 100.3671 0004362  10.9612 349.0630  1.70473652 60098
GSAT0213 (GALILEO 17)   
1 41861U 16069C   26194.36243565 -.00000031  00000+0  00000+0 0  9991
2 41861  55.5134 100.3648 0004126 318.6741  41.3115  1.70474037 59967
GSAT0214 (GALILEO 18)   
1 41862U 16069D   26195.09530723 -.00000030  00000+0  00000+0 0  9997
2 41862  55.5122 100.3371 0003296 333.1197  26.8847  1.70473685 60108
GSAT0215 (GALILEO 19)   
1 43055U 17079A   26192.06539411  .00000090  00000+0  00000+0 0  9997
2 43055  55.0682 220.8492 0003697 267.9007  92.1373  1.70474334 53396
GSAT0216 (GALILEO 20)   
1 43056U 17079B   26194.70284230  .00000073  00000+0  00000+0 0  9998
2 43056  55.0682 220.7766 0004871 277.2094  82.8068  1.70474451 53459
GSAT0217 (GALILEO 21)   
1 43057U 17079C   26194.92364590  .00000071  00000+0  00000+0 0  9999
2 43057  55.0663 220.7682 0005177 287.6925  72.3210  1.70474255 53448
GSAT0218 (GALILEO 22)   
1 43058U 17079D   26195.14371946  .00000068  00000+0  00000+0 0  9994
2 43058  55.0664 220.7598 0005403 274.9614  85.0453  1.70474358 53479
GSAT0221 (GALILEO 25)   
1 43564U 18060A   26194.46121759 -.00000094  00000+0  00000+0 0  9996
2 43564  57.1602 341.0717 0002646 286.2656  73.6918  1.70476034 49617
GSAT0222 (GALILEO 26)   
1 43565U 18060B   26194.68091083 -.00000095  00000+0  00000+0 0  9998
2 43565  57.1635 341.0695 0002781 235.2693 124.6907  1.70475786 49667
GSAT0219 (GALILEO 23)   
1 43566U 18060C   26194.31518514 -.00000093  00000+0  00000+0 0  9990
2 43566  57.1630 341.0808 0001810 299.7576  60.2111  1.70476015 49631
GSAT0220 (GALILEO 24)   
1 43567U 18060D   26194.53619195 -.00000094  00000+0  00000+0 0  9993
2 43567  57.1625 341.0748 0002129 291.2422  68.7213  1.70475652 49621
GSAT0223 (GALILEO 27)   
1 49809U 21116A   26193.80162081 -.00000091  00000+0  00000+0 0  9997
2 49809  57.1512 340.9841 0002430 195.8611 164.1379  1.70475864 28612
GSAT0224 (GALILEO 28)   
1 49810U 21116B   26194.50046551 -.00000094  00000+0  00000+0 0  9993
2 49810  57.1519 340.9637 0001862 181.9105 359.6169  1.70475939 28651
GSAT0225 (GALILEO 29)   
1 59598U 24079A   26193.92364229 -.00000032  00000+0  00000+0 0  9990
2 59598  55.1342 100.3610 0000576 333.1665 207.5558  1.70473595 13753
GSAT0227 (GALILEO 30)   
1 59600U 24079C   26194.98582021 -.00000030  00000+0  00000+0 0  9991
2 59600  55.1303 100.3294 0002845  67.2681 292.7822  1.70473814 13828
GSAT0232 (GALILEO 32)   
1 61182U 24167A   26195.27548545  .00000067  00000+0  00000+0 0  9992
2 61182  55.1796 220.5702 0006487 231.1885 162.2574  1.70474020 11345
GSAT0226 (GALILEO 31)   
1 61183U 24167B   26193.31376557  .00000085  00000+0  00000+0 0  9998
2 61183  55.1789 220.6314 0003219 234.7446 126.0816  1.70473923 11281
GSAT0233 (GALILEO 33)   
1 67160U 25302A   26195.03920554 -.00000031  00000+0  00000+0 0  9996
2 67160  54.3495 101.3657 0000879 156.8538 279.4262  1.70473741  3587
GSAT0234 (GALILEO 34)   
1 67162U 25302C   26195.51064653 -.00000030  00000+0  00000+0 0  9999
2 67162  54.3528 101.3514 0002302 321.0338 224.6861  1.70473847  3646
